{"type": "FeatureCollection", "features": [ {"type": "Feature", "properties": {"norad_id": 54234, "name": "NOAA 21 (JPSS-2)", "group": "weather", "lat": 2.964288369161713, "lon": -70.37410439022017, "alt_km": 828.1619028111045, "timestamp": "2025-12-19T20:42:59.723934+00:00", "meta": {"OBJECT_NAME": "NOAA 21 (JPSS-2)", "OBJECT_ID": "2022-150A", "EPOCH": "2025-12-19T05:28:39.344160", "MEAN_MOTION": 14.1952592, "ECCENTRICITY": 0.00019428, "INCLINATION": 98.747, "RA_OF_ASC_NODE": 289.4557, "ARG_OF_PERICENTER": 25.3373, "MEAN_ANOMALY": 334.7898, "EPHEMERIS_TYPE": 0, "CLASSIFICATION_TYPE": "U", "NORAD_CAT_ID": 54234, "ELEMENT_SET_NO": 999, "REV_AT_EPOCH": 16101, "BSTAR": 4.2984187e-05, "MEAN_MOTION_DOT": 4.7e-07, "MEAN_MOTION_DDOT": 0}, "tle": {"line1": "1 54234U 22150A   25353.22823315  .00000047  00000+0  42984-4 0  9993", "line2": "2 54234  98.7470 289.4557 0001942  25.3373 334.7898 14.19525920161013"}}, "geometry": {"type": "Point", "coordinates": [-70.37410439022017, 2.964288369161713]}}, {"type": "Feature", "properties": {"norad_id": 54743, "name": "METEOSAT-12 (MTG-I1)", "group": "weather", "lat": 0.19250212836624406, "lon": 39.150360310206246, "alt_km": 35790.854954216426, "timestamp": "2025-12-19T20:42:59.723946+00:00", "meta": {"OBJECT_NAME": "METEOSAT-12 (MTG-I1)", "OBJECT_ID": "2022-170C", "EPOCH": "2025-12-19T06:24:51.136128", "MEAN_MOTION": 1.00270426, "ECCENTRICITY": 0.00014811, "INCLINATION": 0.6935, "RA_OF_ASC_NODE": 24.6802, "ARG_OF_PERICENTER": 239.4026, "MEAN_ANOMALY": 279.9464, "EPHEMERIS_TYPE": 0, "CLASSIFICATION_TYPE": "U", "NORAD_CAT_ID": 54743, "ELEMENT_SET_NO": 999, "REV_AT_EPOCH": 1117, "BSTAR": 0, "MEAN_MOTION_DOT": 1.7e-07, "MEAN_MOTION_DDOT": 0}, "tle": {"line1": "1 54743U 22170C   25353.26725852  .00000017  00000+0  00000+0 0  9996", "line2": "2 54743   0.6935  24.6802 0001481 239.4026 279.9464  1.00270426 11173"}}, "geometry": {"type": "Point", "coordinates": [39.150360310206246, 0.19250212836624406]}}, {"type": "Feature", "properties": {"norad_id": 55973, "name": "TIANMU-1 03", "group": "weather", "lat": 20.078003272771884, "lon": -20.521891521717816, "alt_km": 444.34233345593566, "timestamp": "2025-12-19T20:42:59.723957+00:00", "meta": {"OBJECT_NAME": "TIANMU-1 03", "OBJECT_ID": "2023-039A", "EPOCH": "2025-12-19T06:00:05.457888", "MEAN_MOTION": 15.41105682, "ECCENTRICITY": 0.00041116, "INCLINATION": 97.5101, "RA_OF_ASC_NODE": 156.084, "ARG_OF_PERICENTER": 42.5762, "MEAN_ANOMALY": 317.5802, "EPHEMERIS_TYPE": 0, "CLASSIFICATION_TYPE": "U", "NORAD_CAT_ID": 55973, "ELEMENT_SET_NO": 999, "REV_AT_EPOCH": 15306, "BSTAR": 0.00028272684, "MEAN_MOTION_DOT": 0.00011617, "MEAN_MOTION_DDOT": 0}, "tle": {"line1": "1 55973U 23039A   25353.25006317  .00011617  00000+0  28273-3 0  9998", "line2": "2 55973  97.5101 156.0840 0004111  42.5762 317.5802 15.41105682153065"}}, "geometry": {"type": "Point", "coordinates": [-20.521891521717816, 20.078003272771884]}}, {"type": "Feature", "properties": {"norad_id": 55974, "name": "TIANMU-1 04", "group": "weather", "lat": -75.746227134275, "lon": -172.8427598790114, "alt_km": 450.35753734743594, "timestamp": "2025-12-19T20:42:59.723970+00:00", "meta": {"OBJECT_NAME": "TIANMU-1 04", "OBJECT_ID": "2023-039B", "EPOCH": "2025-12-19T07:01:55.172352", "MEAN_MOTION": 15.4144785, "ECCENTRICITY": 0.00047566, "INCLINATION": 97.5034, "RA_OF_ASC_NODE": 155.3165, "ARG_OF_PERICENTER": 36.3626, "MEAN_ANOMALY": 323.7943, "EPHEMERIS_TYPE": 0, "CLASSIFICATION_TYPE": "U", "NORAD_CAT_ID": 55974, "ELEMENT_SET_NO": 999, "REV_AT_EPOCH": 15307, "BSTAR": 0.00028692854, "MEAN_MOTION_DOT": 0.00011928, "MEAN_MOTION_DDOT": 0}, "tle": {"line1": "1 55974U 23039B   25353.29299968  .00011928  00000+0  28693-3 0  9990", "line2": "2 55974  97.5034 155.3165 0004756  36.3626 323.7943 15.41447850153070"}}, "geometry": {"type": "Point", "coordinates": [-172.8427598790114, -75.746227134275]}}, {"type": "Feature", "properties": {"norad_id": 55975, "name": "TIANMU-1 05", "group": "weather", "lat": -55.042893717967125, "lon": 167.26945471238574, "alt_km": 451.16532082149206, "timestamp": "2025-12-19T20:42:59.723981+00:00", "meta": {"OBJECT_NAME": "TIANMU-1 05", "OBJECT_ID": "2023-039C", "EPOCH": "2025-12-19T06:55:58.194336", "MEAN_MOTION": 15.41064434, "ECCENTRICITY": 0.00041796, "INCLINATION": 97.5081, "RA_OF_ASC_NODE": 155.8048, "ARG_OF_PERICENTER": 60.2987, "MEAN_ANOMALY": 299.8675, "EPHEMERIS_TYPE": 0, "CLASSIFICATION_TYPE": "U", "NORAD_CAT_ID": 55975, "ELEMENT_SET_NO": 999, "REV_AT_EPOCH": 15305, "BSTAR": 0.00029029538, "MEAN_MOTION_DOT": 0.00011915, "MEAN_MOTION_DDOT": 0}, "tle": {"line1": "1 55975U 23039C   25353.28886799  .00011915  00000+0  29030-3 0  9996", "line2": "2 55975  97.5081 155.8048 0004179  60.2987 299.8675 15.41064434153059"}}, "geometry": {"type": "Point", "coordinates": [167.26945471238574, -55.042893717967125]}}, {"type": "Feature", "properties": {"norad_id": 55976, "name": "TIANMU-1 06", "group": "weather", "lat": -82.3441554385696, "lon": -124.22625392662145, "alt_km": 451.3850423918384, "timestamp": "2025-12-19T20:42:59.723991+00:00", "meta": {"OBJECT_NAME": "TIANMU-1 06", "OBJECT_ID": "2023-039D", "EPOCH": "2025-12-19T07:04:44.080896", "MEAN_MOTION": 15.41499573, "ECCENTRICITY": 0.00044578, "INCLINATION": 97.5092, "RA_OF_ASC_NODE": 156.2815, "ARG_OF_PERICENTER": 54.8812, "MEAN_ANOMALY": 305.2852, "EPHEMERIS_TYPE": 0, "CLASSIFICATION_TYPE": "U", "NORAD_CAT_ID": 55976, "ELEMENT_SET_NO": 999, "REV_AT_EPOCH": 15307, "BSTAR": 0.00028724611, "MEAN_MOTION_DOT": 0.00011961, "MEAN_MOTION_DDOT": 0}, "tle": {"line1": "1 55976U 23039D   25353.29495464  .00011961  00000+0  28725-3 0  9994", "line2": "2 55976  97.5092 156.2815 0004457  54.8812 305.2852 15.41499573153071"}}, "geometry": {"type": "Point", "coordinates": [-124.22625392662145, -82.3441554385696]}}, {"type": "Feature", "properties": {"norad_id": 56232, "name": "FENGYUN 3G", "group": "weather", "lat": 4.327667692772946, "lon": -165.67430739457853, "alt_km": 411.17154234290774, "timestamp": "2025-12-19T20:42:59.724001+00:00", "meta": {"OBJECT_NAME": "FENGYUN 3G", "OBJECT_ID": "2023-055A", "EPOCH": "2025-12-19T03:43:02.160768", "MEAN_MOTION": 15.54016382, "ECCENTRICITY": 0.00093116, "INCLINATION": 49.992, "RA_OF_ASC_NODE": 194.3407, "ARG_OF_PERICENTER": 177.5614, "MEAN_ANOMALY": 182.5401, "EPHEMERIS_TYPE": 0, "CLASSIFICATION_TYPE": "U", "NORAD_CAT_ID": 56232, "ELEMENT_SET_NO": 999, "REV_AT_EPOCH": 15202, "BSTAR": 0.00037969333, "MEAN_MOTION_DOT": 0.00024711, "MEAN_MOTION_DDOT": 0}, "tle": {"line1": "1 56232U 23055A   25353.15488612  .00024711  00000+0  37969-3 0  9997", "line2": "2 56232  49.9920 194.3407 0009311 177.5614 182.5401 15.54016382152022"}}, "geometry": {"type": "Point", "coordinates": [-165.67430739457853, 4.327667692772946]}}, {"type": "Feature", "properties": {"norad_id": 57166, "name": "METEOR-M2 3", "group": "weather", "lat": 24.529438842844836, "lon": 43.30050598035182, "alt_km": 809.0347789058478, "timestamp": "2025-12-19T20:42:59.724028+00:00", "meta": {"OBJECT_NAME": "METEOR-M2 3", "OBJECT_ID": "2023-091A", "EPOCH": "2025-12-19T07:06:35.618112", "MEAN_MOTION": 14.24026827, "ECCENTRICITY": 0.00035269, "INCLINATION": 98.637, "RA_OF_ASC_NODE": 46.7209, "ARG_OF_PERICENTER": 349.4144, "MEAN_ANOMALY": 10.696, "EPHEMERIS_TYPE": 0, "CLASSIFICATION_TYPE": "U", "NORAD_CAT_ID": 57166, "ELEMENT_SET_NO": 999, "REV_AT_EPOCH": 12891, "BSTAR": 2.4762841e-05, "MEAN_MOTION_DOT": 1.3e-07, "MEAN_MOTION_DDOT": 0}, "tle": {"line1": "1 57166U 23091A   25353.29624558  .00000013  00000+0  24763-4 0  9998", "line2": "2 57166  98.6370  46.7209 0003526 349.4144  10.6960 14.24026827128912"}}, "geometry": {"type": "Point", "coordinates": [43.30050598035182, 24.529438842844836]}}, {"type": "Feature", "properties": {"norad_id": 57399, "name": "TIANMU-1 07", "group": "weather", "lat": -3.26782968078504, "lon": 43.97497854960022, "alt_km": 483.3376456386595, "timestamp": "2025-12-19T20:42:59.724040+00:00", "meta": {"OBJECT_NAME": "TIANMU-1 07", "OBJECT_ID": "2023-101A", "EPOCH": "2025-12-19T08:09:31.533120", "MEAN_MOTION": 15.28161413, "ECCENTRICITY": 0.00053399, "INCLINATION": 97.287, "RA_OF_ASC_NODE": 43.0446, "ARG_OF_PERICENTER": 64.9804, "MEAN_ANOMALY": 295.199, "EPHEMERIS_TYPE": 0, "CLASSIFICATION_TYPE": "U", "NORAD_CAT_ID": 57399, "ELEMENT_SET_NO": 999, "REV_AT_EPOCH": 13416, "BSTAR": 0.00019975185, "MEAN_MOTION_DOT": 5.412e-05, "MEAN_MOTION_DDOT": 0}, "tle": {"line1": "1 57399U 23101A   25353.33994830  .00005412  00000+0  19975-3 0  9992", "line2": "2 57399  97.2870  43.0446 0005339  64.9804 295.1990 15.28161413134162"}}, "geometry": {"type": "Point", "coordinates": [43.97497854960022, -3.26782968078504]}}, {"type": "Feature", "properties": {"norad_id": 57400, "name": "TIANMU-1 08", "group": "weather", "lat": 1.6020435097461831, "lon": -136.44185478090557, "alt_km": 486.3291459431466, "timestamp": "2025-12-19T20:42:59.724051+00:00", "meta": {"OBJECT_NAME": "TIANMU-1 08", "OBJECT_ID": "2023-101B", "EPOCH": "2025-12-19T07:22:02.144928", "MEAN_MOTION": 15.28143647, "ECCENTRICITY": 0.00073144, "INCLINATION": 97.2859, "RA_OF_ASC_NODE": 42.8092, "ARG_OF_PERICENTER": 65.5601, "MEAN_ANOMALY": 294.6402, "EPHEMERIS_TYPE": 0, "CLASSIFICATION_TYPE": "U", "NORAD_CAT_ID": 57400, "ELEMENT_SET_NO": 999, "REV_AT_EPOCH": 13415, "BSTAR": 0.00019865477, "MEAN_MOTION_DOT": 5.381e-05, "MEAN_MOTION_DDOT": 0}, "tle": {"line1": "1 57400U 23101B   25353.30696927  .00005381  00000+0  19865-3 0  9991", "line2": "2 57400  97.2859  42.8092 0007314  65.5601 294.6402 15.28143647134153"}}, "geometry": {"type": "Point", "coordinates": [-136.44185478090557, 1.6020435097461831]}}]}